{"type": "FeatureCollection", "crs": {"type": "name", "properties": {"name": "urn:ogc:def:crs:EPSG::7844"}}, "features": [{"type": "Feature", "properties": {"name": "VINCENT, CITY OF", "abs_lga_number": 8570, "land_area_m2": 11396857.859}, "geometry": {"type": "MultiPolygon", "coordinates": [[[[115.88141385300003, -31.937021871999946], [115.88141629800009, -31.937310097999955], [115.88141807200009, -31.93751877899996], [115.88142162100007, -31.93793608599998], [115.88142197000002, -31.937977841999952], [115.88142290600001, -31.938101642999982], [115.88163582000004, -31.93809943499997], [115.88191858400012, -31.938097367999944], [115.88213335600005, -31.938095816999976], [115.88220485300008, -31.938095285999964], [115.88234803000012, -31.938094251999928], [115.88239530400006, -31.93809390299998], [115.88286759700009, -31.938090466999938], [115.88310379900008, -31.938088747999984], [115.88315687000011, -31.93808835699997], [115.88447847300006, -31.93807873199995], [115.88470801100004, -31.93807705599994], [115.88475908500004, -31.93807667799996], [115.885277072, -31.938072906999935], [115.88525514000003, -31.938095509999982], [115.8852523600001, -31.93810721699998], [115.88525697000011, -31.93811988699997], [115.88526479300003, -31.938128520999953], [115.8852742790001, -31.938131313999975], [115.88531026500004, -31.93813028099993], [115.88531549000004, -31.938135281999962], [115.88531277900006, -31.938140673999953], [115.88526634400012, -31.93817590599997], [115.88523946600003, -31.93821129199995], [115.8851983940001, -31.938239803999977], [115.88507298700006, -31.938286518999973], [115.88494077700011, -31.938372852999976], [115.88490194000008, -31.938391013999933], [115.88486670800012, -31.938404186999946], [115.8848481980001, -31.938414957999953], [115.884842778, -31.938440690999983], [115.88483978900001, -31.93844889099995], [115.88483137900005, -31.938461449999977], [115.88478168800009, -31.938497672999972], [115.88475071700009, -31.938497435999977], [115.88474740600009, -31.938500997999938], [115.88475427900005, -31.938520290999975], [115.8847044910001, -31.93857700799998], [115.88469485200005, -31.93857580699995], [115.88468429000011, -31.938579731999937], [115.8846798620001, -31.938595713999973], [115.88467814400008, -31.93860800699997], [115.8846603180001, -31.93862141799997], [115.88466809900001, -31.938633850999963], [115.88466126800006, -31.93864710899993], [115.884651587, -31.93866299299998], [115.8846452030001, -31.938677800999983], [115.8846402150001, -31.938691714999948], [115.88463907000005, -31.938706605999982], [115.8846385390001, -31.938713744999973], [115.8846380220001, -31.938720813999964], [115.88463177800008, -31.93873637599995], [115.884622809, -31.938745679999954], [115.88461395200011, -31.938754075999952], [115.88460692500007, -31.93876737499994], [115.88460277600007, -31.93878176399994], [115.8845752840001, -31.93880354299995], [115.88456489000009, -31.93892667299997], [115.88455793300011, -31.938943003999952], [115.88455234500009, -31.93895807699994], [115.88453794200007, -31.93896908599993], [115.88449033300003, -31.938985513999967], [115.88452550900001, -31.938988517999974], [115.8845123640001, -31.939005839999936], [115.88449590700009, -31.93901079999995], [115.88448394900001, -31.939014305999933], [115.88444708200007, -31.939044201999934], [115.88444060000006, -31.93905497199995], [115.884442067, -31.939065365999966], [115.88446500600003, -31.939093528999933], [115.88446454500001, -31.939131861999954], [115.88444428800005, -31.939143414999933], [115.88442950800004, -31.939142367999978], [115.8844095180001, -31.939131833999966], [115.88439472300001, -31.939131247999967], [115.88438406500006, -31.939137924999955], [115.88434038100002, -31.93920789999993], [115.8842871280001, -31.93923720899994], [115.88424982800007, -31.939268444999982], [115.88421412100001, -31.93929114599996], [115.88420914800008, -31.939332622999984], [115.88410511500001, -31.93933753999994], [115.8840284480001, -31.939378359999978], [115.88401921400009, -31.939398126999947], [115.88401689500006, -31.93945854699996], [115.88402642300002, -31.93950283099997], [115.88404399700005, -31.939535925999962], [115.88405001800004, -31.93956304099993], [115.88404712600004, -31.93958375899996], [115.88399040800005, -31.93968068099997], [115.88397762600005, -31.939688699999977], [115.88393302000009, -31.939703186999964], [115.88390207700002, -31.939724113999944], [115.8838876320001, -31.93973752499994], [115.8838637020001, -31.939748127999962], [115.88375655300001, -31.93977335699998], [115.88373738700011, -31.939783107999972], [115.8837132750001, -31.93980860299996], [115.88369762900004, -31.93983418199997], [115.88369255700002, -31.939860291999935], [115.88360577700007, -31.93995064799998], [115.88358257300001, -31.939988324999945], [115.88358128800007, -31.94000726799993], [115.88359001900005, -31.940071836999948], [115.8835838440001, -31.940102011999954], [115.88356754100005, -31.94013749499993], [115.8835546890001, -31.940150458999938], [115.8835041320001, -31.940176177999945], [115.88347064700008, -31.940189420999957], [115.8834258170001, -31.94022240399994], [115.88341506100005, -31.940236736999964], [115.88341119100005, -31.94025069299994], [115.88340760100004, -31.940260596999963], [115.88341568900012, -31.94027582399997], [115.8834139710001, -31.94028445799995], [115.88341277000006, -31.940292615999965], [115.88340644100003, -31.94030099799994], [115.88339949800002, -31.94030659999993], [115.88339256900008, -31.940314143999956], [115.88338137900007, -31.940319004999935], [115.88337562400011, -31.940326031999973], [115.8833654120001, -31.940332681999962], [115.88335574500002, -31.940336955999953], [115.88334943000007, -31.94034043499994], [115.88332807000006, -31.940342487999942], [115.88330184900008, -31.94034494699997], [115.88328642600004, -31.940342976999943], [115.88326730200004, -31.94034204099995], [115.88325077500008, -31.940342474999966], [115.88323179000008, -31.94034177599997], [115.88321189700002, -31.94034226499997], [115.88320322200002, -31.940350045999935], [115.88319836000005, -31.940359153999964], [115.88318940600004, -31.94037167099998], [115.88318662600011, -31.940381715999933], [115.8831805210001, -31.940392988999974], [115.88318013000003, -31.940403843999945], [115.883190635, -31.940406078999956], [115.88320218800004, -31.940409864999936], [115.88322787900006, -31.940415522999956], [115.8832339280001, -31.940421864999962], [115.88323149700011, -31.940430609999964], [115.8832087400001, -31.940432621999946], [115.88317859300003, -31.940431573999945], [115.88315297200006, -31.94043245399996], [115.883123608, -31.940454288999945], [115.88307889000009, -31.94047779999994], [115.88305324200007, -31.940499229999944], [115.8830373720001, -31.940543737999974], [115.88301275700007, -31.94056653699994], [115.88293933200009, -31.94060196399994], [115.88289422300011, -31.94061375499996], [115.88289462800003, -31.940625027999943], [115.88290250700004, -31.940629163999972], [115.88291313800005, -31.940625195999928], [115.88293779500009, -31.940641205999952], [115.88294036500008, -31.940647980999984], [115.88293381400001, -31.94066461899996], [115.88292471900002, -31.940672651999932], [115.88289817700002, -31.940680991999955], [115.8828780880001, -31.940680362999956], [115.88287284900002, -31.94067580899997], [115.88286621400005, -31.940656348999937], [115.8828619950001, -31.940654965999954], [115.88285716100006, -31.94066079099997], [115.88285503800012, -31.940749177999976], [115.8828706700001, -31.94076870799995], [115.88286893800012, -31.940780875999963], [115.88285338900005, -31.940797429999975], [115.88285271900008, -31.94080915099994], [115.88287407900009, -31.94083685299995], [115.88290203200006, -31.940887158999942], [115.88293240300004, -31.94091223399994], [115.88293385600002, -31.940923982999948], [115.88292889600007, -31.940939726999943], [115.88290141800007, -31.94098142699994], [115.88287298900002, -31.94101454899993], [115.88283833000003, -31.941036802999974], [115.88276813100003, -31.941067760999942], [115.88273294100009, -31.941090908999968], [115.88268135100009, -31.941114349999964], [115.88259381600005, -31.941178987999933], [115.88257469100006, -31.94118604299996], [115.88253762900001, -31.941187970999977], [115.88250317900008, -31.941193977999944], [115.882504046, -31.94120931699996], [115.8825138520001, -31.941229698999962], [115.88251988700006, -31.941255472999956], [115.88253086800012, -31.94126593699997], [115.88252702600005, -31.941277628999956], [115.88248141400004, -31.941331804999948], [115.88245712100002, -31.94137174399998], [115.88242605200003, -31.94144814499998], [115.88238211700002, -31.94158081699993], [115.88234736000004, -31.941658572999984], [115.88233710600002, -31.941672444999938], [115.88232450500004, -31.941708863999963], [115.88231569000004, -31.941757604999964], [115.88230919400007, -31.941793521999955], [115.88230254500002, -31.941856022999957], [115.88230142700002, -31.941866527999935], [115.88229549000005, -31.94200766499995], [115.88228878400002, -31.942037364999976], [115.88227146200006, -31.942070137999963], [115.88226907300009, -31.942100340999957], [115.8822677180001, -31.942117467999935], [115.88226285600001, -31.942125095999984], [115.88218810400008, -31.942227284999944], [115.88218373100005, -31.942238069999974], [115.88214840100011, -31.942272491999972], [115.88212191500008, -31.94231701299998], [115.8820998000001, -31.942354144999968], [115.88204568100002, -31.94248416299996], [115.88200118700001, -31.94259098999993], [115.8819463000001, -31.94271230399994], [115.881927399, -31.942744601999948], [115.88190663900002, -31.94279900099997], [115.8818778750001, -31.94285918299994], [115.88185136100003, -31.942950964999966], [115.88182835200007, -31.94301706999994], [115.881818769, -31.943109452999977], [115.88180285700003, -31.943155762999936], [115.88179612400006, -31.943188186999976], [115.88175527600004, -31.943328554999937], [115.88174763500001, -31.943392536999966], [115.88173393000011, -31.94343166699997], [115.88172655400001, -31.94347263999998], [115.88171120100003, -31.943517161999978], [115.88169660300002, -31.943543648999935], [115.8816858880001, -31.94355482499998], [115.881684156, -31.943566531999977], [115.88168872400001, -31.94358281999996], [115.88167211400003, -31.943599821999953], [115.88166775500008, -31.943611053999973], [115.88166925000007, -31.94361827599994], [115.88168398800008, -31.943624729999954], [115.88168225600009, -31.943636883999943], [115.88166091000005, -31.943651132999946], [115.88165977800008, -31.943658340999946], [115.88167606700006, -31.94366750599994], [115.8816770730001, -31.94367157099998], [115.881655238, -31.943684017999942], [115.88164248400005, -31.94373171099994], [115.8816299670001, -31.943761368999958], [115.88162256300006, -31.943804605999958], [115.88160005700001, -31.943872065999983], [115.88158893700006, -31.943916629999933], [115.88156651600002, -31.943975959999932], [115.88155585700008, -31.944026390999966], [115.88155616400002, -31.944045333999952], [115.8815634980001, -31.944050809999965], [115.88158573800001, -31.944049203999953], [115.88158720500007, -31.944058241999983], [115.88158179900006, -31.94406856599994], [115.88157432500009, -31.94407346899993], [115.88154687400004, -31.944069612999954], [115.88154199900009, -31.94407904299993], [115.88153690000001, -31.94410696899996], [115.88152389400011, -31.944132561999936], [115.88150831700011, -31.944151364999982], [115.88150503400004, -31.944161702999963], [115.88151048300006, -31.94423574299998], [115.88150675300005, -31.944281703999934], [115.88150053600009, -31.94431321999997], [115.88148051700011, -31.944350937999957], [115.88147354600005, -31.94440184399997], [115.88144738100004, -31.94446656599996], [115.88144536900006, -31.944501281999976], [115.88143443100012, -31.944547004999947], [115.88142029300002, -31.94460615299994], [115.8814054290001, -31.944654278999963], [115.88140157400005, -31.94467545699996], [115.88140000900012, -31.944682022999984], [115.88139326200007, -31.944715801999962], [115.88139200400008, -31.94474015199995], [115.8813817790001, -31.944789576999938], [115.88136706800003, -31.944886247999932], [115.88136716600002, -31.944900064999956], [115.881367264, -31.94491223199998], [115.88136730600002, -31.944918727999948], [115.88136891200008, -31.94494539699997], [115.8813695130001, -31.944955454999956], [115.88136901000007, -31.944990504999964], [115.88136881500009, -31.945005410999954], [115.88136685900008, -31.94504650999994], [115.88136685900008, -31.945099581999955], [115.88136881500009, -31.945126794999965], [115.88136713800009, -31.945175130999928], [115.88136741800008, -31.945252620999952], [115.88137046300005, -31.945369841999934], [115.88136908000001, -31.945423457999937], [115.88135907800006, -31.945494578999956], [115.88134935500011, -31.94557345299995], [115.88134713300008, -31.945651795999936], [115.88134907500012, -31.945695129999933], [115.88135491500009, -31.945741788999953], [115.88134519200003, -31.945796508999933], [115.88133296800004, -31.945841239999936], [115.88133046700011, -31.94590040299994], [115.88132546600002, -31.945931233999943], [115.88132518700002, -31.946029846999977], [115.88133907300005, -31.94603512799995], [115.8813424120001, -31.946144567999966], [115.881350472, -31.94618679799993], [115.88136157800011, -31.94621818899998], [115.88136518200008, -31.94624540199993], [115.88137130100006, -31.94631180099998], [115.88138434900009, -31.94635317899997], [115.88138574600009, -31.94639068799995], [115.88137491900011, -31.946431786999938], [115.88136796200001, -31.94650095199995], [115.88136324100003, -31.946566512999937], [115.88135685600002, -31.94662901399994], [115.88136491700004, -31.94668095399993], [115.88135267900009, -31.94678344999994], [115.88133991100005, -31.94685790899996], [115.88132602500002, -31.94695818499997], [115.88132324500009, -31.947068182999942], [115.88132490700002, -31.947135685999967], [115.88132074400005, -31.94721539799997], [115.88132768700007, -31.947286796999947], [115.88132712900006, -31.947380408999948], [115.88132768700007, -31.947464577999938], [115.88132615100005, -31.947587833999933], [115.88008553100008, -31.947654790999934], [115.8786123000001, -31.94767344099995], [115.87666669300006, -31.947640108999963], [115.87634561000004, -31.947643055999947], [115.87604250600009, -31.94765900999994], [115.87571547200002, -31.947688262999975], [115.87529273100006, -31.947754730999975], [115.87492581300012, -31.947823853999978], [115.87455882600011, -31.94791426699993], [115.8740903050001, -31.948062765999964], [115.87389154200002, -31.94813226599996], [115.8736044200001, -31.948246580999978], [115.8734076830001, -31.948336965999943], [115.87325880600008, -31.948400765999963], [115.87302485300006, -31.94852838099996], [115.87287597700004, -31.94861611099998], [115.87268988500011, -31.94873042699993], [115.8723894630001, -31.948913878999974], [115.87219804900008, -31.949033501999963], [115.87202524200006, -31.94912390099995], [115.87191092600006, -31.949185046999958], [115.87170090400002, -31.949283408999975], [115.87157859800004, -31.949339245999965], [115.87147758200001, -31.949381783999968], [115.87134150200006, -31.949432284999943], [115.87108736300002, -31.949497174999976], [115.87086837100003, -31.949548541999945], [115.87064938000003, -31.94958368999994], [115.87037361600005, -31.94961072199993], [115.87022492100004, -31.94961883899998], [115.87001945200007, -31.94962153499995], [115.86982208600011, -31.94961883899998], [115.86970042300004, -31.94961072199993], [115.8695841660001, -31.94959719899998], [115.86943277500006, -31.94957016799998], [115.86930029900009, -31.949526916999957], [115.86910414800002, -31.94945520999994], [115.868958066, -31.949637459999963], [115.86883001800004, -31.949797218999947], [115.86866507600007, -31.949721711999928], [115.86583361400005, -31.948425450999935], [115.86300223500007, -31.947129133999965], [115.86108229000001, -31.946246281999947], [115.85766226400006, -31.944676364999964], [115.85424234900006, -31.94310636499995], [115.85306751400003, -31.942568456999936], [115.85201235800002, -31.942086398999948], [115.85190567000006, -31.94203789599993], [115.8504038430001, -31.945683758999962], [115.85027750000006, -31.945304686999975], [115.85011799200004, -31.94496473099997], [115.8499207100001, -31.94461214599994], [115.84966467100003, -31.94423437399996], [115.84928689800006, -31.943793638999978], [115.84890914000005, -31.94349981199997], [115.84835087700003, -31.943189205999943], [115.8478574070001, -31.94296017099998], [115.84740233900004, -31.942770306999932], [115.84653739700002, -31.942420711999944], [115.84587437400012, -31.942161528999975], [115.84474751100004, -31.941733716999977], [115.84396444600009, -31.941407995999953], [115.84375238400003, -31.94130653299993], [115.84336252700007, -31.94111997999994], [115.84308437400011, -31.940970222999965], [115.8426344610001, -31.94070689199998], [115.84210364900002, -31.940386269999976], [115.841742683, -31.94014825199997], [115.84142358400004, -31.93990838999997], [115.84126055600007, -31.939784644999975], [115.84109751400001, -31.939662855999984], [115.8408657120001, -31.939468381999973], [115.8405023150001, -31.93916586499995], [115.84022979100007, -31.93891421199993], [115.83992872700003, -31.938627648999955], [115.8397244460001, -31.938421397999946], [115.83941997300008, -31.938095313999952], [115.83913711200012, -31.937761378999937], [115.83889157800002, -31.937451024999973], [115.83867353700009, -31.937124954999945], [115.83852228600006, -31.936883346999934], [115.83812695300003, -31.93619948099996], [115.83788980100007, -31.93578924299993], [115.83761087900007, -31.935290323999936], [115.83705842800009, -31.934275722999928], [115.83663859300009, -31.933493048999935], [115.83635182000012, -31.932968606999964], [115.83604736100006, -31.93245202999998], [115.83571601000006, -31.93192264299995], [115.835362615, -31.93145396899996], [115.83497330400007, -31.93096802799994], [115.834584188, -31.930482058999928], [115.83418905100007, -31.92999737599996], [115.83351474100004, -31.929377631999955], [115.83275348300003, -31.92867691899994], [115.83194305000006, -31.927936125999963], [115.83103668700005, -31.927102084999945], [115.82903215500005, -31.92529628799997], [115.82812844600005, -31.924483298999974], [115.82721287700008, -31.923639771999945], [115.82647587000008, -31.922894355999972], [115.82598731700011, -31.92226719399997], [115.82519441700003, -31.92113833299993], [115.82485041000007, -31.920512120999945], [115.82460296200009, -31.920023553999954], [115.8243681990001, -31.919506431999935], [115.824155829, -31.918944662999934], [115.82401150700002, -31.918509809999932], [115.8238015820001, -31.91785004199994], [115.82365351600004, -31.91741144499997], [115.82349231800004, -31.916856646999975], [115.82340798200005, -31.916496783999946], [115.82329739700003, -31.91589138699993], [115.82320709600003, -31.915247181999973], [115.82317182200006, -31.914995472999976], [115.82309090800004, -31.914328441999942], [115.82311824700002, -31.914328413999954], [115.82333100800008, -31.91432817599997], [115.82343736000007, -31.914328049999938], [115.82409214100005, -31.914327309999976], [115.82412924500011, -31.914327267999965], [115.82454412100003, -31.91432679299993], [115.82471427300004, -31.914326611999968], [115.82488442600004, -31.914326415999938], [115.82511846300008, -31.914326150999955], [115.82530941700008, -31.914325926999936], [115.82541578300004, -31.91432580099996], [115.82550854300007, -31.914325703999964], [115.8256285440001, -31.91432623399993], [115.826011289, -31.91432795299994], [115.8262069650001, -31.914328832999956], [115.82639620000009, -31.91432967099996], [115.82658545000004, -31.914330522999933], [115.82677468500003, -31.914331360999938], [115.82696392000003, -31.914332212999966], [115.82707959100003, -31.914332729999956], [115.82754231400008, -31.914334783999948], [115.82775501800006, -31.914335733999962], [115.82805682300011, -31.914337074999935], [115.82808906500009, -31.914337214999932], [115.82822689200009, -31.914337828999976], [115.8287757390001, -31.91433247899994], [115.82886000500002, -31.914331654999955], [115.82963023200011, -31.91432459999993], [115.82969408800011, -31.91432401299994], [115.82982297400008, -31.914322825999932], [115.8299518450001, -31.914321651999956], [115.83008070300002, -31.914320464999946], [115.83020957500003, -31.91431929099997], [115.83033843300007, -31.91431810399996], [115.8304672910001, -31.914316929999984], [115.83059610600003, -31.914315742999975], [115.83068203500011, -31.914314960999945], [115.83074582100005, -31.914314373999957], [115.83095847000004, -31.914312431999974], [115.8310222560001, -31.91431184499993], [115.83111159300006, -31.914311020999946], [115.83124050700008, -31.914309833999937], [115.83136936500011, -31.914308645999938], [115.831498237, -31.914307444999963], [115.83162709400005, -31.914306257999954], [115.83175592400005, -31.914305069999955], [115.83218102700005, -31.914301158999933], [115.83239387100002, -31.914299202999928], [115.83260605900011, -31.91429724699998], [115.83281827500002, -31.91429530499994], [115.83294717400008, -31.91429411799993], [115.83297931900006, -31.91429382399997], [115.83306387800008, -31.914293055999963], [115.83314845200005, -31.914292273999934], [115.83331754300002, -31.914290722999965], [115.83333372000004, -31.914290582999968], [115.83346262000009, -31.91428939599996], [115.83359150500007, -31.914288221999982], [115.83384945800003, -31.914285847999963], [115.83397838600001, -31.91428467399993], [115.83410728600006, -31.914283486999977], [115.83423619900009, -31.914282312999944], [115.83436509900002, -31.914281125999935], [115.83449399900007, -31.91427995199996], [115.8346229120001, -31.91427876499995], [115.83468194900001, -31.91427821999997], [115.83475179800007, -31.91427757699995], [115.83488071200009, -31.91427638999994], [115.83500961200002, -31.91427520299993], [115.83513852500005, -31.914274014999933], [115.8352674250001, -31.914272841999946], [115.83539633900011, -31.914271653999947], [115.83552523800006, -31.914270466999938], [115.83565415200007, -31.91426927899994], [115.83578305200001, -31.91426809199993], [115.83591196500004, -31.91426690399993], [115.83604086500009, -31.914265702999955], [115.83617876100004, -31.91426443199998], [115.83640292100006, -31.914262377999933], [115.83646634400009, -31.914261791999934], [115.83667913300008, -31.914259821999963], [115.83674257000007, -31.914259234999975], [115.83695345900003, -31.914257292999935], [115.83721588200001, -31.914254875999973], [115.83726905100002, -31.91425438799996], [115.83770830500009, -31.914250349999975], [115.83792101000006, -31.914248379999947], [115.83795272100008, -31.914248086999976], [115.8381138630001, -31.91424660599995], [115.83836019400007, -31.91424434299995], [115.83841336300009, -31.91424385399995], [115.83861862200001, -31.914241953999976], [115.8387891650001, -31.914240389999975], [115.83885260200009, -31.91423980299993], [115.83906543300009, -31.91423784699998], [115.83931012900007, -31.914235597999948], [115.83948359200008, -31.914233991999936], [115.8395047140001, -31.914233795999962], [115.83955789800007, -31.91423330699996], [115.83957903400005, -31.91423311099993], [115.83978643000012, -31.91423119799998], [115.83996553800011, -31.91422954899997], [115.83999724900002, -31.914229269999964], [115.84020288500005, -31.914227369999935], [115.8405895840001, -31.914223807999974], [115.84064276700008, -31.914223318999973], [115.84102943900007, -31.914219755999966], [115.84124211500011, -31.91421780099995], [115.84162881400005, -31.914214209999955], [115.84168198400005, -31.914213720999953], [115.84170313400011, -31.91421352599997], [115.8418088300001, -31.914212547999966], [115.84200503600005, -31.914210717999936], [115.84206885000003, -31.914210116999982], [115.8422815130001, -31.91420813299993], [115.84255493100011, -31.91420556299994], [115.84267463800006, -31.914204430999973], [115.84272783600011, -31.91420392799995], [115.84292440500008, -31.914202083999953], [115.843012681, -31.914201245999948], [115.84312096100007, -31.914200225999934], [115.84333366600004, -31.914198200999977], [115.84343816, -31.914197222999974], [115.8435008570001, -31.914196621999963], [115.84366810400002, -31.914195029999973], [115.843687885, -31.914194847999966], [115.84383522500002, -31.91419356299997], [115.84400216400002, -31.91419210999993], [115.84406170400007, -31.91419159299994], [115.8441699980001, -31.91419065699995], [115.84427635000009, -31.914189720999957], [115.84438270300006, -31.91418879899993], [115.84448904100009, -31.91418791899997], [115.84456031500008, -31.91418731799996], [115.8445953800001, -31.914187024999933], [115.8447658120001, -31.91418559999994], [115.84480811200001, -31.914185250999935], [115.84502090100011, -31.914183476999938], [115.84512728100003, -31.914182582999956], [115.84523364800009, -31.91418170199995], [115.84544631000006, -31.914180011999974], [115.84555266300003, -31.914179159999946], [115.84565900100006, -31.91417832199994], [115.84571715800007, -31.914177860999928], [115.84587166400001, -31.914176630999975], [115.8460840890001, -31.914174954999964], [115.846137859, -31.91417452199994], [115.84624405800002, -31.914173683999934], [115.84644304400001, -31.914108974999976], [115.84654408800009, -31.91408072799993], [115.8469925060001, -31.913955362999957], [115.8471507700001, -31.913911134999978], [115.84721506000005, -31.913893168999948], [115.8472518420001, -31.913882887999932], [115.84735271800002, -31.913854681999965], [115.84731984700011, -31.91376889399993], [115.84769514700008, -31.913663588999952], [115.84784884300007, -31.913620477999984], [115.8491873910001, -31.914773296999954], [115.84933735700008, -31.914901958999963], [115.8506553420001, -31.91603276199993], [115.85085038900002, -31.916200106999952], [115.8523505820001, -31.917487175999952], [115.8525456430001, -31.91765453399995], [115.85422425800004, -31.91909461499995], [115.85437680900009, -31.919221181999944], [115.85467326300011, -31.919474650999973], [115.8555622340001, -31.92023926199994], [115.85871714000007, -31.922936516999982], [115.85978616800003, -31.923851302999935], [115.85982493400002, -31.923884467999983], [115.86104246200011, -31.924927259999947], [115.86398973500002, -31.927455158999976], [115.86409054100011, -31.92754077999996], [115.8658171290001, -31.929016608999973], [115.86819216900005, -31.931045043999973], [115.87056732100007, -31.933073436999962], [115.87210153100011, -31.934388165999962], [115.87224648200004, -31.934536175999938], [115.87457755900004, -31.936515073999942], [115.876908748, -31.938493929999936], [115.87694581000005, -31.938526171999968], [115.87704189400006, -31.938479065999957], [115.87868973500008, -31.937671147999936], [115.87899408200008, -31.937517954999976], [115.87909988900003, -31.937518289999957], [115.87920550100011, -31.937518694999937], [115.8793897490001, -31.937427988999957], [115.87950139600002, -31.937373031999982], [115.87955724800008, -31.937345524999955], [115.879613113, -31.937318017999928], [115.87972477400001, -31.93726304699993], [115.87983642100005, -31.937208089999956], [115.87994805400001, -31.93715311799997], [115.88005970100005, -31.937098146999972], [115.88009322900007, -31.937081648999936], [115.88017134800009, -31.937043175999975], [115.88028299500002, -31.936988217999954], [115.88039464200006, -31.936933246999956], [115.8805062890001, -31.93687827599996], [115.88061792200006, -31.93682330499996], [115.8807295690001, -31.936768332999975], [115.880757592, -31.936754530999963], [115.88084121600002, -31.936713361999978], [115.88095286300006, -31.93665839099998], [115.88106449600002, -31.936603418999937], [115.88108683300004, -31.936592410999936], [115.88133152900002, -31.936471920999963], [115.88140885200005, -31.93643383899996], [115.88140950900004, -31.936509988999944], [115.88140984400002, -31.936528805999956], [115.88141240000004, -31.93685095099994], [115.8814127500001, -31.936892734999958], [115.88141385300003, -31.937021871999946]]]]}}]}